{"type": "FeatureCollection", "features": [ {"type": "Feature", "properties": {"norad_id": 35602, "name": "COSMOS 2251 DEB", "group": "cosmos-2251-debris", "lat": 46.86681663911868, "lon": -173.3733337395288, "alt_km": 516.4084273630679, "timestamp": "2025-12-18T23:35:49.459546+00:00", "meta": {"OBJECT_NAME": "COSMOS 2251 DEB", "OBJECT_ID": "1993-036AMV", "EPOCH": "2025-12-18T05:07:36.279840", "MEAN_MOTION": 15.35279766, "ECCENTRICITY": 0.00891938, "INCLINATION": 73.9927, "RA_OF_ASC_NODE": 170.4375, "ARG_OF_PERICENTER": 234.9985, "MEAN_ANOMALY": 242.6614, "EPHEMERIS_TYPE": 0, "CLASSIFICATION_TYPE": "U", "NORAD_CAT_ID": 35602, "ELEMENT_SET_NO": 999, "REV_AT_EPOCH": 90175, "BSTAR": 0.00048312432, "MEAN_MOTION_DOT": 0.00018873, "MEAN_MOTION_DDOT": 0}, "tle": {"line1": "1 35602U 93036AMV 25352.21361435  .00018873  00000+0  48312-3 0  9996", "line2": "2 35602  73.9927 170.4375 0089193 234.9985 242.6614 15.35279766901750"}}, "geometry": {"type": "Point", "coordinates": [-173.3733337395288, 46.86681663911868]}}, {"type": "Feature", "properties": {"norad_id": 35605, "name": "COSMOS 2251 DEB", "group": "cosmos-2251-debris", "lat": 69.68044741399953, "lon": 91.68516811431687, "alt_km": 463.10378943684645, "timestamp": "2025-12-18T23:35:49.459557+00:00", "meta": {"OBJECT_NAME": "COSMOS 2251 DEB", "OBJECT_ID": "1993-036AMY", "EPOCH": "2025-12-16T05:30:02.725344", "MEAN_MOTION": 15.35586787, "ECCENTRICITY": 0.00242235, "INCLINATION": 73.8701, "RA_OF_ASC_NODE": 329.0606, "ARG_OF_PERICENTER": 257.5437, "MEAN_ANOMALY": 102.3057, "EPHEMERIS_TYPE": 0, "CLASSIFICATION_TYPE": "U", "NORAD_CAT_ID": 35605, "ELEMENT_SET_NO": 999, "REV_AT_EPOCH": 66025, "BSTAR": 0.0050760725, "MEAN_MOTION_DOT": 0.00181517, "MEAN_MOTION_DDOT": 0}, "tle": {"line1": "1 35605U 93036AMY 25350.22919821  .00181517  00000+0  50761-2 0  9992", "line2": "2 35605  73.8701 329.0606 0024223 257.5437 102.3057 15.35586787660251"}}, "geometry": {"type": "Point", "coordinates": [91.68516811431687, 69.68044741399953]}}, {"type": "Feature", "properties": {"norad_id": 35606, "name": "COSMOS 2251 DEB", "group": "cosmos-2251-debris", "lat": 73.553531773889, "lon": 101.0809935787527, "alt_km": 1216.2390040956534, "timestamp": "2025-12-18T23:35:49.459567+00:00", "meta": {"OBJECT_NAME": "COSMOS 2251 DEB", "OBJECT_ID": "1993-036AMZ", "EPOCH": "2025-12-17T18:27:28.365120", "MEAN_MOTION": 13.41216697, "ECCENTRICITY": 0.04572108, "INCLINATION": 73.8105, "RA_OF_ASC_NODE": 2.7804, "ARG_OF_PERICENTER": 207.7717, "MEAN_ANOMALY": 149.8287, "EPHEMERIS_TYPE": 0, "CLASSIFICATION_TYPE": "U", "NORAD_CAT_ID": 35606, "ELEMENT_SET_NO": 999, "REV_AT_EPOCH": 61107, "BSTAR": 0.0003718916, "MEAN_MOTION_DOT": 3.59e-06, "MEAN_MOTION_DDOT": 0}, "tle": {"line1": "1 35606U 93036AMZ 25351.76907830  .00000359  00000+0  37189-3 0  9994", "line2": "2 35606  73.8105   2.7804 0457210 207.7717 149.8287 13.41216697611071"}}, "geometry": {"type": "Point", "coordinates": [101.0809935787527, 73.553531773889]}}, {"type": "Feature", "properties": {"norad_id": 35611, "name": "COSMOS 2251 DEB", "group": "cosmos-2251-debris", "lat": -56.18712347575391, "lon": 141.79457996606394, "alt_km": 650.7867310247902, "timestamp": "2025-12-18T23:35:49.459578+00:00", "meta": {"OBJECT_NAME": "COSMOS 2251 DEB", "OBJECT_ID": "1993-036ANE", "EPOCH": "2025-12-17T21:47:16.724544", "MEAN_MOTION": 14.72986484, "ECCENTRICITY": 0.00214069, "INCLINATION": 74.0185, "RA_OF_ASC_NODE": 169.2246, "ARG_OF_PERICENTER": 241.9604, "MEAN_ANOMALY": 117.9404, "EPHEMERIS_TYPE": 0, "CLASSIFICATION_TYPE": "U", "NORAD_CAT_ID": 35611, "ELEMENT_SET_NO": 999, "REV_AT_EPOCH": 87366, "BSTAR": 0.0018150701, "MEAN_MOTION_DOT": 0.00011685, "MEAN_MOTION_DDOT": 0}, "tle": {"line1": "1 35611U 93036ANE 25351.90783246  .00011685  00000+0  18151-2 0  9990", "line2": "2 35611  74.0185 169.2246 0021406 241.9604 117.9404 14.72986484873661"}}, "geometry": {"type": "Point", "coordinates": [141.79457996606394, -56.18712347575391]}}, {"type": "Feature", "properties": {"norad_id": 35614, "name": "COSMOS 2251 DEB", "group": "cosmos-2251-debris", "lat": -65.93229290253392, "lon": -84.74818400438367, "alt_km": 703.5557763991765, "timestamp": "2025-12-18T23:35:49.459588+00:00", "meta": {"OBJECT_NAME": "COSMOS 2251 DEB", "OBJECT_ID": "1993-036ANH", "EPOCH": "2025-12-18T14:06:30.738528", "MEAN_MOTION": 14.67062492, "ECCENTRICITY": 0.00753345, "INCLINATION": 73.9588, "RA_OF_ASC_NODE": 316.1215, "ARG_OF_PERICENTER": 169.1076, "MEAN_ANOMALY": 191.1747, "EPHEMERIS_TYPE": 0, "CLASSIFICATION_TYPE": "U", "NORAD_CAT_ID": 35614, "ELEMENT_SET_NO": 999, "REV_AT_EPOCH": 87815, "BSTAR": 0.00056217357, "MEAN_MOTION_DOT": 3.259e-05, "MEAN_MOTION_DDOT": 0}, "tle": {"line1": "1 35614U 93036ANH 25352.58785577  .00003259  00000+0  56217-3 0  9991", "line2": "2 35614  73.9588 316.1215 0075334 169.1076 191.1747 14.67062492878152"}}, "geometry": {"type": "Point", "coordinates": [-84.74818400438367, -65.93229290253392]}}, {"type": "Feature", "properties": {"norad_id": 35645, "name": "COSMOS 2251 DEB", "group": "cosmos-2251-debris", "lat": -61.87119662808374, "lon": -71.4164706315443, "alt_km": 698.349700038104, "timestamp": "2025-12-18T23:35:49.459598+00:00", "meta": {"OBJECT_NAME": "COSMOS 2251 DEB", "OBJECT_ID": "1993-036ANL", "EPOCH": "2025-12-18T05:51:00.261792", "MEAN_MOTION": 14.45662018, "ECCENTRICITY": 0.00697503, "INCLINATION": 73.9648, "RA_OF_ASC_NODE": 77.4223, "ARG_OF_PERICENTER": 234.5372, "MEAN_ANOMALY": 124.9263, "EPHEMERIS_TYPE": 0, "CLASSIFICATION_TYPE": "U", "NORAD_CAT_ID": 35645, "ELEMENT_SET_NO": 999, "REV_AT_EPOCH": 86851, "BSTAR": 0.0016694587, "MEAN_MOTION_DOT": 6.062e-05, "MEAN_MOTION_DDOT": 0}, "tle": {"line1": "1 35645U 93036ANL 25352.24375303  .00006062  00000+0  16695-2 0  9990", "line2": "2 35645  73.9648  77.4223 0069750 234.5372 124.9263 14.45662018868512"}}, "geometry": {"type": "Point", "coordinates": [-71.4164706315443, -61.87119662808374]}}, {"type": "Feature", "properties": {"norad_id": 35646, "name": "COSMOS 2251 DEB", "group": "cosmos-2251-debris", "lat": -23.165785063806442, "lon": 39.01042930382936, "alt_km": 1452.7987566637385, "timestamp": "2025-12-18T23:35:49.459610+00:00", "meta": {"OBJECT_NAME": "COSMOS 2251 DEB", "OBJECT_ID": "1993-036ANM", "EPOCH": "2025-12-18T13:20:49.282080", "MEAN_MOTION": 13.40829033, "ECCENTRICITY": 0.04564144, "INCLINATION": 73.8718, "RA_OF_ASC_NODE": 46.7997, "ARG_OF_PERICENTER": 156.0103, "MEAN_ANOMALY": 279.1958, "EPHEMERIS_TYPE": 0, "CLASSIFICATION_TYPE": "U", "NORAD_CAT_ID": 35646, "ELEMENT_SET_NO": 999, "REV_AT_EPOCH": 81936, "BSTAR": 0.00040845832, "MEAN_MOTION_DOT": 3.96e-06, "MEAN_MOTION_DDOT": 0}, "tle": {"line1": "1 35646U 93036ANM 25352.55612595  .00000396  00000+0  40846-3 0  9992", "line2": "2 35646  73.8718  46.7997 0456414 156.0103 279.1958 13.40829033819363"}}, "geometry": {"type": "Point", "coordinates": [39.01042930382936, -23.165785063806442]}}, {"type": "Feature", "properties": {"norad_id": 35647, "name": "COSMOS 2251 DEB", "group": "cosmos-2251-debris", "lat": -73.8241431446509, "lon": -158.03431147515496, "alt_km": 763.3519823463084, "timestamp": "2025-12-18T23:35:49.459620+00:00", "meta": {"OBJECT_NAME": "COSMOS 2251 DEB", "OBJECT_ID": "1993-036ANN", "EPOCH": "2025-12-16T12:07:42.204576", "MEAN_MOTION": 14.43653976, "ECCENTRICITY": 0.00457493, "INCLINATION": 74.0235, "RA_OF_ASC_NODE": 287.5596, "ARG_OF_PERICENTER": 25.7805, "MEAN_ANOMALY": 334.5617, "EPHEMERIS_TYPE": 0, "CLASSIFICATION_TYPE": "U", "NORAD_CAT_ID": 35647, "ELEMENT_SET_NO": 999, "REV_AT_EPOCH": 67718, "BSTAR": 0.00059115508, "MEAN_MOTION_DOT": 2.005e-05, "MEAN_MOTION_DDOT": 0}, "tle": {"line1": "1 35647U 93036ANN 25350.50534959  .00002005  00000+0  59116-3 0  9992", "line2": "2 35647  74.0235 287.5596 0045749  25.7805 334.5617 14.43653976677182"}}, "geometry": {"type": "Point", "coordinates": [-158.03431147515496, -73.8241431446509]}}, {"type": "Feature", "properties": {"norad_id": 35650, "name": "COSMOS 2251 DEB", "group": "cosmos-2251-debris", "lat": -73.0440927411307, "lon": -103.71346847928665, "alt_km": 633.0491557563437, "timestamp": "2025-12-18T23:35:49.459632+00:00", "meta": {"OBJECT_NAME": "COSMOS 2251 DEB", "OBJECT_ID": "1993-036ANR", "EPOCH": "2025-12-18T11:45:31.313664", "MEAN_MOTION": 14.83768636, "ECCENTRICITY": 0.00148473, "INCLINATION": 74.0452, "RA_OF_ASC_NODE": 7.491, "ARG_OF_PERICENTER": 52.0296, "MEAN_ANOMALY": 98.5494, "EPHEMERIS_TYPE": 0, "CLASSIFICATION_TYPE": "U", "NORAD_CAT_ID": 35650, "ELEMENT_SET_NO": 999, "REV_AT_EPOCH": 87719, "BSTAR": 0.0014528833, "MEAN_MOTION_DOT": 0.0001204, "MEAN_MOTION_DDOT": 0}, "tle": {"line1": "1 35650U 93036ANR 25352.48994576  .00012040  00000+0  14529-2 0  9998", "line2": "2 35650  74.0452   7.4910 0014847  52.0296  98.5494 14.83768636877195"}}, "geometry": {"type": "Point", "coordinates": [-103.71346847928665, -73.0440927411307]}}, {"type": "Feature", "properties": {"norad_id": 35660, "name": "COSMOS 2251 DEB", "group": "cosmos-2251-debris", "lat": 16.4213772531724, "lon": -63.328971158880584, "alt_km": 729.6509383144066, "timestamp": "2025-12-18T23:35:49.459642+00:00", "meta": {"OBJECT_NAME": "COSMOS 2251 DEB", "OBJECT_ID": "1993-036APB", "EPOCH": "2025-12-15T02:38:46.156416", "MEAN_MOTION": 14.49937403, "ECCENTRICITY": 0.00182984, "INCLINATION": 74.0379, "RA_OF_ASC_NODE": 128.7781, "ARG_OF_PERICENTER": 277.071, "MEAN_ANOMALY": 198.1224, "EPHEMERIS_TYPE": 0, "CLASSIFICATION_TYPE": "U", "NORAD_CAT_ID": 35660, "ELEMENT_SET_NO": 999, "REV_AT_EPOCH": 65905, "BSTAR": 0.00040464315, "MEAN_MOTION_DOT": 1.541e-05, "MEAN_MOTION_DDOT": 0}, "tle": {"line1": "1 35660U 93036APB 25349.11025644  .00001541  00000+0  40464-3 0  9998", "line2": "2 35660  74.0379 128.7781 0018298 277.0710 198.1224 14.49937403659054"}}, "geometry": {"type": "Point", "coordinates": [-63.328971158880584, 16.4213772531724]}}]}